OBJECT_NAME,OBJECT_ID,EPOCH,MEAN_MOTION,ECCENTRICITY,INCLINATION,RA_OF_ASC_NODE,ARG_OF_PERICENTER,MEAN_ANOMALY,EPHEMERIS_TYPE,CLASSIFICATION_TYPE,NORAD_CAT_ID,ELEMENT_SET_NO,REV_AT_EPOCH,BSTAR,MEAN_MOTION_DOT,MEAN_MOTION_DDOT
TIANMU-1 21,2023-208C,2026-06-04T03:27:55.194048,15.34833369,.0007069,97.4498,274.6270,15.5414,344.6044,0,U,58662,999,13556,.3179E-3,.10666E-3,0
TIANMU-1 22,2023-208D,2026-06-04T04:43:19.464384,15.30867539,.0004412,97.4493,271.3800,46.1045,314.0559,0,U,58663,999,13534,.30282E-3,.8959E-4,0
TIANMU-1 15,2024-004A,2026-06-04T04:31:58.484640,15.26881440,.0007912,97.4669,341.3778,45.1793,315.0088,0,U,58700,999,13379,.24067E-3,.6285E-4,0
TIANMU-1 16,2024-004B,2026-06-04T04:13:06.278304,15.26607184,.0007013,97.4615,340.6163,49.3331,310.8516,0,U,58701,999,13379,.23436E-3,.6067E-4,0
TIANMU-1 17,2024-004C,2026-06-04T03:52:08.997600,15.26606844,.0006655,97.4643,341.0819,54.5861,305.5998,0,U,58702,999,13378,.22607E-3,.5849E-4,0
TIANMU-1 18,2024-004D,2026-06-04T04:55:41.475360,15.26866950,.0005167,97.4661,341.3733,53.4412,306.7302,0,U,58703,999,13379,.23802E-3,.621E-4,0
INSAT-3DS,2024-033A,2026-06-04T01:58:21.793152,1.00271078,.0001651,0.0157,244.9243,180.6260,298.6386,0,U,58990,999,4693,0,-.144E-5,0
METEOR-M2 4,2024-039A,2026-06-04T04:05:00.947904,14.22428116,.000652,98.7005,114.6323,199.0460,161.0475,0,U,59051,999,11741,.28399E-4,.19E-6,0
GOES 19,2024-119A,2026-06-04T04:14:38.556096,1.00271705,.0000675,0.0458,135.8547,354.6462,110.6014,0,U,60133,999,683,0,-.236E-5,0
MTG-S1,2025-143A,2026-06-04T03:16:43.492800,1.00271568,.0001212,0.6148,336.0944,38.2648,283.9352,0,U,64723,999,328,0,-.2E-6,0
METOP-SGA1,2025-172A,2026-06-04T01:07:12.137664,14.21507466,.0001004,98.6648,215.0136,84.8605,275.2687,0,U,65159,999,4192,.45037E-4,.55E-6,0
FENGYUN 3H,2025-219A,2026-06-03T10:35:08.023776,14.19917857,.00016378,98.6765,95.4778,88.4136,271.7228,0,U,65815,999,3543,.58743444E-4,.81E-6,0
