TIANMU-1 21             
1 58662U 23208C   26155.14438882  .00010666  00000+0  31790-3 0  9990
2 58662  97.4498 274.6270 0007069  15.5414 344.6044 15.34833369135560
TIANMU-1 22             
1 58663U 23208D   26155.19675306  .00008959  00000+0  30282-3 0  9997
2 58663  97.4493 271.3800 0004412  46.1045 314.0559 15.30867539135348
TIANMU-1 15             
1 58700U 24004A   26155.18887135  .00006285  00000+0  24067-3 0  9992
2 58700  97.4669 341.3778 0007912  45.1793 315.0088 15.26881440133791
TIANMU-1 16             
1 58701U 24004B   26155.17576711  .00006067  00000+0  23436-3 0  9994
2 58701  97.4615 340.6163 0007013  49.3331 310.8516 15.26607184133799
TIANMU-1 17             
1 58702U 24004C   26155.16121525  .00005849  00000+0  22607-3 0  9999
2 58702  97.4643 341.0819 0006655  54.5861 305.5998 15.26606844133787
TIANMU-1 18             
1 58703U 24004D   26155.20534115  .00006210  00000+0  23802-3 0  9999
2 58703  97.4661 341.3733 0005167  53.4412 306.7302 15.26866950133792
INSAT-3DS               
1 58990U 24033A   26155.08219668 -.00000144  00000+0  00000+0 0  9990
2 58990   0.0157 244.9243 0001651 180.6260 298.6386  1.00271078 46930
METEOR-M2 4             
1 59051U 24039A   26155.17014986  .00000019  00000+0  28399-4 0  9997
2 59051  98.7005 114.6323 0006520 199.0460 161.0475 14.22428116117412
GOES 19                 
1 60133U 24119A   26155.17683514 -.00000236  00000+0  00000+0 0  9994
2 60133   0.0458 135.8547 0000675 354.6462 110.6014  1.00271705  6836
MTG-S1                  
1 64723U 25143A   26155.13661450 -.00000020  00000+0  00000+0 0  9993
2 64723   0.6148 336.0944 0001212  38.2648 283.9352  1.00271568  3284
METOP-SGA1              
1 65159U 25172A   26155.04666826  .00000055  00000+0  45037-4 0  9992
2 65159  98.6648 215.0136 0001004  84.8605 275.2687 14.21507466 41922
FENGYUN 3H              
1 65815U 25219A   26154.44106509  .00000081  00000+0  58743-4 0  9990
2 65815  98.6765  95.4778 0001637  88.4136 271.7228 14.19917857 35431
